{
  "type": "FeatureCollection",
  "features": [
    {
      "type": "Feature",
      "properties": {
        "norad_id": 40889,
        "name": "GSAT0205 (GALILEO 9)",
        "group": "galileo",
        "lat": -47.49344503189415,
        "lon": 96.6955950742503,
        "alt_km": 23243.369386363298,
        "timestamp": "2025-12-07T05:38:10.167371+00:00",
        "meta_object_name": "GSAT0205 (GALILEO 9)",
        "meta_object_id": "2015-045A",
        "meta_epoch": "2025-12-03T21:42:02.149056",
        "meta_mean_motion": 1.70472902,
        "meta_eccentricity": 0.0005859,
        "meta_inclination": 55.0066,
        "meta_ra_of_asc_node": 227.0025,
        "meta_arg_of_pericenter": 38.6315,
        "meta_mean_anomaly": 321.5029,
        "meta_ephemeris_type": 0,
        "meta_classification_type": "U",
        "meta_norad_cat_id": 40889,
        "meta_element_set_no": 999,
        "meta_rev_at_epoch": 6368,
        "meta_bstar": 0,
        "meta_mean_motion_dot": 4e-07,
        "meta_mean_motion_ddot": 0,
        "tle_line1": "1 40889U 15045A   25337.90419154  .00000040  00000+0  00000+0 0  9999",
        "tle_line2": "2 40889  55.0066 227.0025 0005859  38.6315 321.5029  1.70472902 63681"
      },
      "geometry": {
        "type": "Point",
        "coordinates": [
          96.6955950742503,
          -47.49344503189415
        ]
      }
    },
    {
      "type": "Feature",
      "properties": {
        "norad_id": 40890,
        "name": "GSAT0206 (GALILEO 10)",
        "group": "galileo",
        "lat": 50.871467182362096,
        "lon": -12.432193634028648,
        "alt_km": 23213.835815135848,
        "timestamp": "2025-12-07T05:38:10.167382+00:00",
        "meta_object_name": "GSAT0206 (GALILEO 10)",
        "meta_object_id": "2015-045B",
        "meta_epoch": "2025-12-05T21:13:48.980352",
        "meta_mean_motion": 1.70473029,
        "meta_eccentricity": 0.00035588,
        "meta_inclination": 55.0048,
        "meta_ra_of_asc_node": 226.9429,
        "meta_arg_of_pericenter": 32.2764,
        "meta_mean_anomaly": 327.8431,
        "meta_ephemeris_type": 0,
        "meta_classification_type": "U",
        "meta_norad_cat_id": 40890,
        "meta_element_set_no": 999,
        "meta_rev_at_epoch": 6374,
        "meta_bstar": 0,
        "meta_mean_motion_dot": 3.5e-07,
        "meta_mean_motion_ddot": 0,
        "tle_line1": "1 40890U 15045B   25339.88459468  .00000035  00000+0  00000+0 0  9996",
        "tle_line2": "2 40890  55.0048 226.9429 0003558  32.2764 327.8431  1.70473029 63745"
      },
      "geometry": {
        "type": "Point",
        "coordinates": [
          -12.432193634028648,
          50.871467182362096
        ]
      }
    },
    {
      "type": "Feature",
      "properties": {
        "norad_id": 41174,
        "name": "GSAT0209 (GALILEO 12)",
        "group": "galileo",
        "lat": 4.540903349656897,
        "lon": 109.62213194009705,
        "alt_km": 23214.931511485793,
        "timestamp": "2025-12-07T05:38:10.167393+00:00",
        "meta_object_name": "GSAT0209 (GALILEO 12)",
        "meta_object_id": "2015-079A",
        "meta_epoch": "2025-12-01T22:43:10.411392",
        "meta_mean_motion": 1.70474306,
        "meta_eccentricity": 0.0002352,
        "meta_inclination": 55.7062,
        "meta_ra_of_asc_node": 106.6773,
        "meta_arg_of_pericenter": 357.4206,
        "meta_mean_anomaly": 2.5431,
        "meta_ephemeris_type": 0,
        "meta_classification_type": "U",
        "meta_norad_cat_id": 41174,
        "meta_element_set_no": 999,
        "meta_rev_at_epoch": 6141,
        "meta_bstar": 0,
        "meta_mean_motion_dot": 3.5e-07,
        "meta_mean_motion_ddot": 0,
        "tle_line1": "1 41174U 15079A   25335.94664828  .00000035  00000+0  00000+0 0  9990",
        "tle_line2": "2 41174  55.7062 106.6773 0002352 357.4206   2.5431  1.70474306 61412"
      },
      "geometry": {
        "type": "Point",
        "coordinates": [
          109.62213194009705,
          4.540903349656897
        ]
      }
    },
    {
      "type": "Feature",
      "properties": {
        "norad_id": 41175,
        "name": "GSAT0208 (GALILEO 11)",
        "group": "galileo",
        "lat": -39.547533318152524,
        "lon": -39.224983807215146,
        "alt_km": 23231.048984582103,
        "timestamp": "2025-12-07T05:38:10.167403+00:00",
        "meta_object_name": "GSAT0208 (GALILEO 11)",
        "meta_object_id": "2015-079B",
        "meta_epoch": "2025-12-05T16:28:14.683584",
        "meta_mean_motion": 1.70474159,
        "meta_eccentricity": 0.00019173,
        "meta_inclination": 55.707,
        "meta_ra_of_asc_node": 106.5718,
        "meta_arg_of_pericenter": 7.3332,
        "meta_mean_anomaly": 352.6208,
        "meta_ephemeris_type": 0,
        "meta_classification_type": "U",
        "meta_norad_cat_id": 41175,
        "meta_element_set_no": 999,
        "meta_rev_at_epoch": 6189,
        "meta_bstar": 0,
        "meta_mean_motion_dot": 8e-08,
        "meta_mean_motion_ddot": 0,
        "tle_line1": "1 41175U 15079B   25339.68628106  .00000008  00000+0  00000+0 0  9995",
        "tle_line2": "2 41175  55.7070 106.5718 0001917   7.3332 352.6208  1.70474159 61896"
      },
      "geometry": {
        "type": "Point",
        "coordinates": [
          -39.224983807215146,
          -39.547533318152524
        ]
      }
    },
    {
      "type": "Feature",
      "properties": {
        "norad_id": 41549,
        "name": "GSAT0211 (GALILEO 14)",
        "group": "galileo",
        "lat": 20.838834016119165,
        "lon": 31.623008833800537,
        "alt_km": 23228.96953844576,
        "timestamp": "2025-12-07T05:38:10.167414+00:00",
        "meta_object_name": "GSAT0211 (GALILEO 14)",
        "meta_object_id": "2016-030A",
        "meta_epoch": "2025-12-05T19:26:55.320000",
        "meta_mean_motion": 1.70472946,
        "meta_eccentricity": 0.00039556,
        "meta_inclination": 55.1547,
        "meta_ra_of_asc_node": 227.0144,
        "meta_arg_of_pericenter": 12.8849,
        "meta_mean_anomaly": 347.2228,
        "meta_ephemeris_type": 0,
        "meta_classification_type": "U",
        "meta_norad_cat_id": 41549,
        "meta_element_set_no": 999,
        "meta_rev_at_epoch": 5937,
        "meta_bstar": 0,
        "meta_mean_motion_dot": 3.5e-07,
        "meta_mean_motion_ddot": 0,
        "tle_line1": "1 41549U 16030A   25339.81036250  .00000035  00000+0  00000+0 0  9996",
        "tle_line2": "2 41549  55.1547 227.0144 0003955  12.8849 347.2228  1.70472946 59378"
      },
      "geometry": {
        "type": "Point",
        "coordinates": [
          31.623008833800537,
          20.838834016119165
        ]
      }
    },
    {
      "type": "Feature",
      "properties": {
        "norad_id": 41550,
        "name": "GSAT0210 (GALILEO 13)",
        "group": "galileo",
        "lat": -3.072357245347265,
        "lon": -135.15853519777798,
        "alt_km": 23224.484567640036,
        "timestamp": "2025-12-07T05:38:10.167425+00:00",
        "meta_object_name": "GSAT0210 (GALILEO 13)",
        "meta_object_id": "2016-030B",
        "meta_epoch": "2025-12-04T07:23:32.472672",
        "meta_mean_motion": 1.70473512,
        "meta_eccentricity": 0.0001419,
        "meta_inclination": 55.1546,
        "meta_ra_of_asc_node": 227.0538,
        "meta_arg_of_pericenter": 244.2228,
        "meta_mean_anomaly": 115.8568,
        "meta_ephemeris_type": 0,
        "meta_classification_type": "U",
        "meta_norad_cat_id": 41550,
        "meta_element_set_no": 999,
        "meta_rev_at_epoch": 5934,
        "meta_bstar": 0,
        "meta_mean_motion_dot": 4e-07,
        "meta_mean_motion_ddot": 0,
        "tle_line1": "1 41550U 16030B   25338.30801473  .00000040  00000+0  00000+0 0  9994",
        "tle_line2": "2 41550  55.1546 227.0538 0001419 244.2228 115.8568  1.70473512 59344"
      },
      "geometry": {
        "type": "Point",
        "coordinates": [
          -135.15853519777798,
          -3.072357245347265
        ]
      }
    },
    {
      "type": "Feature",
      "properties": {
        "norad_id": 41859,
        "name": "GSAT0207 (GALILEO 15)",
        "group": "galileo",
        "lat": -4.523141909604275,
        "lon": -70.48102151516602,
        "alt_km": 23227.856988784246,
        "timestamp": "2025-12-07T05:38:10.167436+00:00",
        "meta_object_name": "GSAT0207 (GALILEO 15)",
        "meta_object_id": "2016-069A",
        "meta_epoch": "2025-12-05T18:13:35.857920",
        "meta_mean_motion": 1.70474238,
        "meta_eccentricity": 0.00021634,
        "meta_inclination": 55.3781,
        "meta_ra_of_asc_node": 106.4436,
        "meta_arg_of_pericenter": 324.5217,
        "meta_mean_anomaly": 35.4153,
        "meta_ephemeris_type": 0,
        "meta_classification_type": "U",
        "meta_norad_cat_id": 41859,
        "meta_element_set_no": 999,
        "meta_rev_at_epoch": 5610,
        "meta_bstar": 0,
        "meta_mean_motion_dot": 7e-08,
        "meta_mean_motion_ddot": 0,
        "tle_line1": "1 41859U 16069A   25339.75944280  .00000007  00000+0  00000+0 0  9995",
        "tle_line2": "2 41859  55.3781 106.4436 0002163 324.5217  35.4153  1.70474238 56107"
      },
      "geometry": {
        "type": "Point",
        "coordinates": [
          -70.48102151516602,
          -4.523141909604275
        ]
      }
    }
  ]
}